2022-043A               
1 52320U 22043A   22148.46935708  .00009705  00000+0  41149-3 0  9994
2 52320  97.4727 224.0061 0013644 154.2648 301.1425 15.23251009  4461
2022-043B               
1 52321U 22043B   22148.43174019  .00034053  00000+0  13279-2 0  9998
2 52321  97.4706 224.0359 0014346 182.4968 234.2243 15.25768410  4462
2022-043C               
1 52322U 22043C   22148.45938657  .00010406  00000+0  42052-3 0  9995
2 52322  97.4719 224.0539 0014387 182.8664 359.7376 15.24842112  4460
2022-043D               
1 52323U 22043D   22148.37611176  .00015686  00000+0  28511-3 0  9990
2 52323  97.5638 225.3587 0086777 278.6259 149.4231 15.45465808  4511
2022-043E               
1 52324U 22043E   22148.43906426  .00080508  00000+0  27082-2 0  9999
2 52324  97.4639 224.1503 0020872 207.8129 208.4808 15.30275682  4475
2022-043F               
1 52325U 22043F   22148.44960261  .00055052  00000+0  31276-2 0  9994
2 52325  97.2217 222.3485 0108915 115.3595 245.8741 15.07723476  4407
2022-043G               
1 52326U 22043G   22148.49501380  .00020140  00000+0  17711-2 0  9991
2 52326  97.2934 221.8281 0157327  66.8230 294.9406 14.87440575  4359
2022-043H               
1 52327U 22043H   22148.46632007  .00036848  00000+0  21249-2 0  9993
2 52327  97.7078 224.0561 0118695 118.3414 242.9718 15.06409491  4412
2022-043J               
1 52328U 22043J   22148.43909825  .00027003  00000+0  23867-2 0  9997
2 52328  97.7281 223.2453 0159041  68.9159 292.8929 14.87016115  4330
STARLINK-3889           
1 52331U 22045A   22148.25002315 -.00710956  00000+0 -11574-1 0  9990
2 52331  53.2173 296.6838 0001118  63.9741   5.1023 15.54538224  7007
STARLINK-3831           
1 52332U 22045B   22147.91668981 -.00711611  00000+0 -11375-1 0  9998
2 52332  53.2172 298.2623 0001049  78.0536 281.8476 15.55035367  6958
STARLINK-3847           
1 52333U 22045C   22148.25002315 -.00710863  00000+0 -11576-1 0  9991
2 52333  53.2173 296.6634 0001227  53.0254  14.4640 15.54528875  6999
STARLINK-3880           
1 52334U 22045D   22148.25002315 -.00711023  00000+0 -11573-1 0  9998
2 52334  53.2173 296.6933 0001182  57.8153  12.0544 15.54542909  6993
STARLINK-3814           
1 52335U 22045E   22148.25002315 -.00710908  00000+0 -11569-1 0  9995
2 52335  53.2173 296.7039 0001177  57.1138  13.5492 15.54547508  7003
STARLINK-3823           
1 52336U 22045F   22148.25002315 -.00711024  00000+0 -11569-1 0  9996
2 52336  53.2173 296.7223 0001183  57.3637  14.0925 15.54552304  7009
STARLINK-3797           
1 52337U 22045G   22147.91668981 -.00711729  00000+0 -11373-1 0  9991
2 52337  53.2172 298.2821 0001082  66.1646 295.3128 15.55044743  6952
STARLINK-3815           
1 52338U 22045H   22148.16667824 -.00715460  00000+0 -11586-1 0  9997
2 52338  53.2175 297.1539 0001172  63.1198 263.9971 15.54696493  6983
STARLINK-3792           
1 52339U 22045J   22148.25002315 -.00710962  00000+0 -11564-1 0  9994
2 52339  53.2173 296.7427 0001164  58.5214  14.5212 15.54561573  7003
STARLINK-3818           
1 52340U 22045K   22148.25002315  .00110868  00000+0  78428-3 0  9997
2 52340  53.2139 295.9011 0001074  53.1706  71.9740 15.73190864  7009
STARLINK-3843           
1 52341U 22045L   22148.25002315 -.00710894  00000+0 -11565-1 0  9992
2 52341  53.2173 296.7325 0001094  67.0207   5.2288 15.54556905  7005
STARLINK-3850           
1 52342U 22045M   22148.25002315  .00002633  00000+0  23136-4 0  9996
2 52342  53.2139 295.8982 0001241  51.8529  74.5075 15.73234145  7013
STARLINK-3849           
1 52343U 22045N   22147.91668981 -.00712051  00000+0 -11362-1 0  9995
2 52343  53.2172 298.4402 0001237  52.5609 315.2179 15.55083111  6956
STARLINK-3851           
1 52344U 22045P   22148.58334491  .00033920  00000+0  24495-3 0  9998
2 52344  53.2143 294.2472 0001332  50.5768 165.9608 15.73216711  7060
STARLINK-3852           
1 52345U 22045Q   22148.58334491  .00021385  00000+0  15613-3 0  9993
2 52345  53.2145 294.2538 0001514  47.3578 166.1274 15.73239858  7059
STARLINK-3812           
1 52346U 22045R   22148.58334491 -.00069599  00000+0 -49353-3 0  9993
2 52346  53.2142 294.2463 0001491  39.4245 177.6111 15.73295900  7069
STARLINK-3826           
1 52347U 22045S   22148.58334491 -.00081209  00000+0 -57708-3 0  9999
2 52347  53.2144 294.2517 0001366  49.3787 165.2516 15.73309014  7068
STARLINK-3829           
1 52348U 22045T   22148.25002315  .00040789  00000+0  29337-3 0  9994
2 52348  53.2137 295.8918 0001253  50.6238  78.6836 15.73220814  7011
STARLINK-3819           
1 52349U 22045U   22148.25002315 -.00002022  00000+0 -99765-5 0  9999
2 52349  53.2144 295.8963 0001094  60.1649  66.8004 15.73243988  7018
STARLINK-3754           
1 52350U 22045V   22148.58334491  .00022214  00000+0  16196-3 0  9998
2 52350  53.2141 294.2425 0001492  52.7234 166.0845 15.73245133  7067
STARLINK-3816           
1 52351U 22045W   22148.25002315  .00009430  00000+0  71464-4 0  9995
2 52351  53.2138 295.8939 0001384  35.4738  93.2957 15.73222771  7011
STARLINK-3838           
1 52352U 22045X   22148.58334491 -.00000806  00000+0 -13118-5 0  9998
2 52352  53.2140 294.2378 0001899  29.2010 191.4275 15.73243408  7069
STARLINK-3807           
1 52353U 22045Y   22147.91668981  .00039155  00000+0  28227-3 0  9991
2 52353  53.2134 297.5412 0001403  37.9809   3.5831 15.73185468  6961
STARLINK-3876           
1 52354U 22045Z   22147.84521113  .00000972  00000+0  11341-4 0  9994
2 52354  53.2150 297.8847 0001349  61.8354 298.2802 15.73197473  6954
STARLINK-3877           
1 52355U 22045AA  22148.58334491 -.00059474  00000+0 -42056-3 0  9997
2 52355  53.2142 294.2394 0001362  37.3315 182.6595 15.73297456  7064
STARLINK-3801           
1 52356U 22045AB  22147.91668981  .00027489  00000+0  19958-3 0  9992
2 52356  53.2131 297.5357 0001292  48.8632 355.0547 15.73206700  6962
STARLINK-3821           
1 52357U 22045AC  22148.25002315 -.00001824  00000+0 -85617-5 0  9998
2 52357  53.2137 295.8855 0001445  53.0768  79.2418 15.73234597  7015
STARLINK-3837           
1 52358U 22045AD  22148.58334491  .00015365  00000+0  11354-3 0  9996
2 52358  53.2139 294.2289 0001574  57.8822 166.9194 15.73231329  7068
STARLINK-3853           
1 52359U 22045AE  22148.58334491 -.00038084  00000+0 -26764-3 0  9993
2 52359  53.2142 294.2341 0001298  44.6728 177.8383 15.73245121  7060
STARLINK-3824           
1 52360U 22045AF  22148.58334491 -.00067237  00000+0 -47762-3 0  9998
2 52360  53.2147 294.2267 0001481  48.9068 177.0921 15.73241487  7052
STARLINK-3728           
1 52361U 22045AG  22148.25002315 -.00018307  00000+0 -12604-3 0  9991
2 52361  53.2136 295.8802 0001205  50.7204  84.0318 15.73248609  7016
STARLINK-3848           
1 52362U 22045AH  22148.58334491 -.00075779  00000+0 -53925-3 0  9998
2 52362  53.2139 294.2249 0001230  50.3682 176.2087 15.73248840  7061
STARLINK-3830           
1 52363U 22045AJ  22148.58334491 -.00073261  00000+0 -52080-3 0  9994
2 52363  53.2141 294.2301 0001523  52.2808 172.0000 15.73258157  7061
STARLINK-3820           
1 52364U 22045AK  22148.58334491  .00016084  00000+0  11863-3 0  9997
2 52364  53.2139 294.2225 0001382  50.1493 177.6088 15.73232570  7062
STARLINK-3874           
1 52365U 22045AL  22148.25002315 -.00016597  00000+0 -11387-3 0  9991
2 52365  53.2136 295.8763 0001173  53.2296  83.3343 15.73240680  7010
STARLINK-3808           
1 52366U 22045AM  22148.58334491 -.00018843  00000+0 -12976-3 0  9992
2 52366  53.2138 294.2195 0001208  45.8715 183.0953 15.73267040  7066
STARLINK-3817           
1 52367U 22045AN  22147.91668981 -.00009219  00000+0 -61269-4 0  9990
2 52367  53.2130 297.5246 0001426  49.8627 359.4452 15.73224805  1306
STARLINK-3834           
1 52368U 22045AP  22148.25002315  .00070847  00000+0  50546-3 0  9990
2 52368  53.2133 295.8645 0001110  60.6290  81.3062 15.73176590  7009
STARLINK-3841           
1 52369U 22045AQ  22148.58334491 -.00000375  00000+0  17466-5 0  9996
2 52369  53.2176 294.2214 0001271  52.8367 175.3498 15.73204374  7063
STARLINK-3827           
1 52370U 22045AR  22148.25002315  .00044082  00000+0  31649-3 0  9998
2 52370  53.2132 295.8668 0001485  54.2169  86.4318 15.73226849  7019
STARLINK-3798           
1 52371U 22045AS  22148.25002315  .00013160  00000+0  97854-4 0  9993
2 52371  53.2133 295.8662 0001252  51.9129  89.3016 15.73244513  7001
STARLINK-3796           
1 52372U 22045AT  22148.58334491 -.00061261  00000+0 -43341-3 0  9991
2 52372  53.2154 294.2131 0001485  50.8598 181.0513 15.73297832  7054
STARLINK-3550           
1 52373U 22045AU  22148.25002315  .00100266  00000+0  71131-3 0  9998
2 52373  53.2149 295.8602 0001370  47.7428  96.6108 15.73167406  7019
STARLINK-3762           
1 52374U 22045AV  22147.91668981  .00058349  00000+0  41765-3 0  9992
2 52374  53.2144 297.5124 0001556  43.3717  11.2952 15.73178515  6968
STARLINK-3785           
1 52375U 22045AW  22148.25002315  .00111383  00000+0  78788-3 0  9997
2 52375  53.2132 295.8632 0001205  48.1211  94.3224 15.73190180  7017
STARLINK-3767           
1 52376U 22045AX  22148.25002315  .00036256  00000+0  26151-3 0  9990
2 52376  53.2149 295.8569 0001212  53.3636  92.0823 15.73210830  7017
STARLINK-3805           
1 52377U 22045AY  22148.58334491 -.00008017  00000+0 -52720-4 0  9998
2 52377  53.2153 294.2096 0001306  38.5301 195.3288 15.73215798  7053
STARLINK-3806           
1 52378U 22045AZ  22148.25002315  .00107990  00000+0  76555-3 0  9999
2 52378  53.2150 295.8542 0001425  54.8919  91.8579 15.73152379  7016
STARLINK-3800           
1 52379U 22045BA  22148.25002315  .00004516  00000+0  36544-4 0  9995
2 52379  53.2154 295.8555 0001043  65.9331  80.1609 15.73218271  7011
STARLINK-3793           
1 52380U 22045BB  22148.58334491 -.00006859  00000+0 -44462-4 0  9998
2 52380  53.2137 294.2023 0001444  77.0862 160.2579 15.73212830  7061
